ONEWEB-0558             
1 56059U 23043P   26007.43763687 -.00000766  00000+0 -18870-2 0  9992
2 56059  87.9223 276.0480 0001201  66.8770 293.2491 13.21831661137006
ONEWEB-0559             
1 56060U 23043Q   26007.50181131 -.00000005  00000+0 -44642-4 0  9994
2 56060  87.9223 276.0291 0001520  64.5786 295.5505 13.21827284137023
ONEWEB-0566             
1 56061U 23043R   26007.49522362  .00000119  00000+0  25728-3 0  9995
2 56061  87.9218 276.0292 0001341  65.6354 294.4920 13.21828367137003
ONEWEB-0568             
1 56062U 23043S   26007.42936108  .00000028  00000+0  39700-4 0  9991
2 56062  87.9042 260.7791 0001558  86.6114 273.5195 13.16594171137829
ONEWEB-0574             
1 56063U 23043T   26007.48864872  .00000155  00000+0  34278-3 0  9991
2 56063  87.9228 276.0180 0001776  75.4289 284.7042 13.21824755137048
ONEWEB-0575             
1 56064U 23043U   26007.42302648 -.00000023  00000+0 -94035-4 0  9998
2 56064  87.9041 260.7797 0001929  81.5237 278.6112 13.16593943137818
ONEWEB-0576             
1 56065U 23043V   26007.40403284  .00000013  00000+0  15947-5 0  9998
2 56065  87.9042 260.7850 0001782  79.2987 280.8344 13.16594458137806
ONEWEB-0577             
1 56066U 23043W   26007.41036193 -.00000023  00000+0 -93126-4 0  9998
2 56066  87.9043 260.7826 0002311  77.1992 282.9397 13.16594185137834
